     2.100          NAVIGATION                              RINEX VERSION / TYPE
fic2rin                                 04/14/2014 00:18:02 PGM / RUN BY / DATE
                                                            END OF HEADER
28 14  4 13  8  0  0.0  .346928369254D-03  .295585778076D-11  .000000000000D+00
     .600000000000D+02  .371562500000D+02  .384444585089D-08  .381692483984D+00
     .187382102013D-05  .191449407721D-01  .108256936073D-04  .515366956711D+04
     .288000000000D+05 -.333413481712D-06 -.297817755632D+01 -.502914190292D-07
     .986623123053D+00  .188281250000D+03 -.171673458399D+01 -.797854662421D-08
     .374301305437D-09  .100000000000D+01  .178800000000D+04  .000000000000D+00
     .240000000000D+01  .000000000000D+00 -.107102096081D-07  .600000000000D+02
     .216060000000D+05  .400000000000D+01
29 14  4 13  8  0  0.0  .525111798197D-03  .261479726760D-11  .000000000000D+00
     .850000000000D+02  .140312500000D+02  .492199073496D-08  .235914121390D+01
     .493600964546D-06  .166507938411D-02  .381842255592D-05  .515371593666D+04
     .288000000000D+05  .502914190292D-07 -.194265103194D+01  .931322574615D-08
     .968603298992D+00  .311093750000D+03 -.926406774344D+00 -.837677749783D-08
     .176078762959D-09  .100000000000D+01  .178800000000D+04  .000000000000D+00
     .340000000000D+01  .000000000000D+00 -.931322574615D-08  .850000000000D+02
     .216060000000D+05  .400000000000D+01
31 14  4 13  8  0  0.0  .334198120981D-03  .113686837722D-12  .000000000000D+00
     .110000000000D+02 -.968750000000D+02  .393444959990D-08  .290732378751D+01
    -.489503145218D-05  .806291110348D-02  .901147723198D-05  .515381006432D+04
     .288000000000D+05  .353902578354D-07  .222471973100D+01  .000000000000D+00
     .978594439918D+00  .217343750000D+03 -.628311961338D+00 -.774032241550D-08
    -.487877464912D-09  .100000000000D+01  .178800000000D+04  .000000000000D+00
     .240000000000D+01  .000000000000D+00 -.130385160446D-07  .110000000000D+02
     .216060000000D+05  .400000000000D+01
32 14  4 13  8  0  0.0 -.450360123068D-03  .761701812735D-11  .000000000000D+00
     .850000000000D+02  .783750000000D+02  .457304762865D-08 -.261805069675D+01
     .389851629734D-05  .114322977606D-01  .106301158667D-04  .515377078629D+04
     .288000000000D+05 -.284984707832D-06  .185401098517D+00 -.372529029846D-08
     .948402278705D+00  .165625000000D+03 -.171137893014D+00 -.796461747257D-08
     .172864343351D-09  .100000000000D+01  .178800000000D+04  .000000000000D+00
     .240000000000D+01  .000000000000D+00 -.325962901115D-08  .850000000000D+02
     .216060000000D+05  .400000000000D+01
29 14  4 13  7 59 44.0  .525110866874D-03  .261479726760D-11  .000000000000D+00
     .180000000000D+02  .140312500000D+02  .492234789269D-08  .235680924494D+01
     .493600964546D-06  .166507787071D-02  .381842255592D-05  .515371594238D+04
     .287840000000D+05  .502914190292D-07 -.194265089882D+01  .931322574615D-08
     .968603291678D+00  .311093750000D+03 -.926408516679D+00 -.837677749783D-08
     .176078762959D-09  .100000000000D+01  .178800000000D+04  .000000000000D+00
     .240000000000D+01  .000000000000D+00 -.931322574615D-08  .180000000000D+02
     .218760000000D+05  .400000000000D+01
19 14  4 13  7 59 44.0 -.450718682259D-03 -.227373675443D-11  .000000000000D+00
     .300000000000D+01  .503125000000D+01  .494377735674D-08 -.124697465400D+01
     .195577740669D-06  .101687073475D-01  .328198075294D-05  .515359193420D+04
     .287840000000D+05  .169500708580D-06 -.190069890093D+01 -.111758708954D-06
     .964995320226D+00  .313406250000D+03  .413707509881D+00 -.837499170916D-08
     .242867259253D-09  .100000000000D+01  .178800000000D+04  .000000000000D+00
     .240000000000D+01  .000000000000D+00 -.149011611938D-07  .300000000000D+01
     .223560000000D+05  .400000000000D+01
 4 14  4 13  7 59 44.0  .661658123136D-05  .227373675443D-12  .000000000000D+00
     .000000000000D+00 -.639062500000D+02  .527343394541D-08  .140518327850D+01
    -.332482159138D-05  .105610187165D-01  .924244523048D-05  .515372030640D+04
     .287840000000D+05 -.271946191788D-06 -.954400435935D+00  .000000000000D+00
     .938281164822D+00  .194937500000D+03  .108741632666D+01 -.846785272005D-08
    -.475019786481D-09  .100000000000D+01  .178800000000D+04  .000000000000D+00
     .240000000000D+01  .000000000000D+00 -.605359673500D-08  .000000000000D+00
     .253860000000D+05  .400000000000D+01
23 14  4 13  7 59 44.0 -.119684264064D-04 -.318323145621D-11  .000000000000D+00
     .000000000000D+00  .253750000000D+02  .498699344258D-08 -.157338081882D+01
     .119768083096D-05  .910876411945D-02  .260770320892D-05  .515356362915D+04
     .287840000000D+05  .391155481339D-07  .115743186389D+01 -.141561031342D-06
     .952050458460D+00  .323812500000D+03 -.279562564583D+01 -.846999566646D-08
     .125005206969D-09  .100000000000D+01  .178800000000D+04  .000000000000D+00
     .240000000000D+01  .000000000000D+00 -.200234353542D-07  .000000000000D+00
     .255960000000D+05  .400000000000D+01
10 14  4 13  7 59 44.0 -.121485907584D-03 -.125055521494D-11  .000000000000D+00
     .000000000000D+00  .721875000000D+02  .493270546698D-08  .622396777895D+00
     .406801700592D-05  .135052682599D-01  .104960054159D-04  .515372816277D+04
     .287840000000D+05 -.147148966789D-06  .114139014645D+00  .162050127983D-06
     .942731540096D+00  .168187500000D+03  .861212675708D+00 -.840177853923D-08
     .432160858377D-10  .100000000000D+01  .178800000000D+04  .000000000000D+00
     .240000000000D+01  .000000000000D+00 -.279396772385D-08  .000000000000D+00
     .279660000000D+05  .400000000000D+01
 4 14  4 13  9 59 44.0  .661797821522D-05  .227373675443D-12  .000000000000D+00
     .100000000000D+01 -.685312500000D+02  .512878506306D-08  .245522029858D+01
    -.365078449249D-05  .105607322184D-01  .853836536407D-05  .515372270775D+04
     .359840000000D+05  .000000000000D+00 -.954460541387D+00 -.160187482834D-06
     .938279264492D+00  .203343750000D+03  .108753580464D+01 -.816748306560D-08
    -.431803700643D-09  .100000000000D+01  .178800000000D+04  .000000000000D+00
     .240000000000D+01  .000000000000D+00 -.605359673500D-08  .100000000000D+01
     .288060000000D+05  .400000000000D+01
10 14  4 13  9 59 44.0 -.121495220810D-03 -.125055521494D-11  .000000000000D+00
     .100000000000D+01  .631250000000D+02  .488377485740D-08  .167243037036D+01
     .328756868839D-05  .135060356697D-01  .110995024443D-04  .515373147202D+04
     .359840000000D+05 -.387430191040D-06  .114077945130D+00 -.186264514923D-08
     .942732507084D+00  .159687500000D+03  .861328986472D+00 -.825498671047D-08
     .176793078427D-09  .100000000000D+01  .178800000000D+04  .000000000000D+00
     .240000000000D+01  .000000000000D+00 -.279396772385D-08  .100000000000D+01
     .288060000000D+05  .400000000000D+01
19 14  4 13  9 59 44.0 -.450735446066D-03 -.227373675443D-11  .000000000000D+00
     .150000000000D+02  .862500000000D+01  .499806533234D-08 -.196784915510D+00
     .590458512306D-06  .101683496032D-01  .362098217010D-05  .515359083748D+04
     .359840000000D+05  .968575477600D-07 -.190075948622D+01  .968575477600D-07
     .964995947817D+00  .311156250000D+03  .413752106939D+00 -.857428572485D-08
     .174650132022D-09  .100000000000D+01  .178800000000D+04  .000000000000D+00
     .240000000000D+01  .000000000000D+00 -.149011611938D-07  .150000000000D+02
     .288060000000D+05  .400000000000D+01
23 14  4 13  9 59 44.0 -.119912438095D-04 -.318323145621D-11  .000000000000D+00
     .400000000000D+01  .326562500000D+02  .515771483953D-08 -.523228441788D+00
     .154413282871D-05  .910826923791D-02  .258535146713D-05  .515356164551D+04
     .359840000000D+05  .156462192535D-06  .115737118936D+01  .119209289551D-06
     .952050018122D+00  .323156250000D+03 -.279552591870D+01 -.869821945861D-08
    -.210723063176D-10  .100000000000D+01  .178800000000D+04  .000000000000D+00
     .240000000000D+01  .000000000000D+00 -.200234353542D-07  .400000000000D+01
     .288060000000D+05  .400000000000D+01
 1 14  4 13 10  0  0.0  .838004052639D-05  .159161572810D-11  .000000000000D+00
     .104000000000D+03 -.676562500000D+02  .467233747875D-08 -.154310899001D+01
    -.359304249287D-05  .290398520883D-02  .898167490959D-05  .515368124008D+04
     .360000000000D+05  .745058059692D-08 -.941898893938D+00 -.912696123123D-07
     .960734583023D+00  .206187500000D+03  .316480388530D+00 -.808819404860D-08
    -.412517182996D-09  .100000000000D+01  .178800000000D+04  .000000000000D+00
     .240000000000D+01  .000000000000D+00  .651925802231D-08  .104000000000D+03
     .288060000000D+05  .400000000000D+01
 2 14  4 13 10  0  0.0  .489457044750D-03  .216004991671D-11  .000000000000D+00
     .800000000000D+02 -.575312500000D+02  .527129099900D-08 -.931653145287D+00
    -.282749533653D-05  .134473124053D-01  .831484794617D-05  .515358614540D+04
     .360000000000D+05  .227242708206D-06 -.970524259648D+00  .206753611565D-06
     .939246904341D+00  .205718750000D+03 -.244346831631D+01 -.842463663422D-08
    -.390373403476D-09  .100000000000D+01  .178800000000D+04  .000000000000D+00
     .240000000000D+01  .000000000000D+00 -.200234353542D-07  .800000000000D+02
     .288060000000D+05  .400000000000D+01
 3 14  4 13 10  0  0.0  .351172871888D-03  .488853402203D-11  .000000000000D+00
     .300000000000D+01  .417812500000D+02  .556416034104D-08 -.760563391055D+00
     .246055424213D-05  .168554447591D-01  .463426113129D-05  .515377489090D+04
     .360000000000D+05 -.204890966415D-06 -.214513044093D+01  .195577740669D-06
     .937617975781D+00  .282625000000D+03  .137492751692D+01 -.897037365207D-08
     .441804117201D-09  .100000000000D+01  .178800000000D+04  .000000000000D+00
     .240000000000D+01  .000000000000D+00 -.465661287308D-08  .300000000000D+01
     .288060000000D+05  .400000000000D+01
